OBJECT_NAME,OBJECT_ID,EPOCH,MEAN_MOTION,ECCENTRICITY,INCLINATION,RA_OF_ASC_NODE,ARG_OF_PERICENTER,MEAN_ANOMALY,EPHEMERIS_TYPE,CLASSIFICATION_TYPE,NORAD_CAT_ID,ELEMENT_SET_NO,REV_AT_EPOCH,BSTAR,MEAN_MOTION_DOT,MEAN_MOTION_DDOT
IRIDIUM 138,2017-083B,2026-07-11T07:36:15.193728,14.34217737,.0002082,86.3996,311.6275,91.6705,268.4729,0,U,43071,999,44759,.45406E-4,.147E-5,0
IRIDIUM 116,2017-083C,2026-07-10T17:26:50.590752,14.34220153,.0002404,86.3983,312.1606,99.2562,260.8905,0,U,43072,999,44754,.4542E-4,.147E-5,0
IRIDIUM 130,2017-083D,2026-07-11T07:45:23.351616,14.34216997,.0002193,86.3991,312.1891,101.1278,259.0164,0,U,43073,999,44757,.41294E-4,.135E-5,0
IRIDIUM 151,2017-083E,2026-07-11T07:08:51.227232,14.34217266,.0002224,86.3985,311.9802,95.3312,264.8137,0,U,43074,999,44759,.47318E-4,.152E-5,0
IRIDIUM 134,2017-083F,2026-07-11T09:44:07.217376,14.34217838,.0002196,86.3986,311.9437,95.7382,264.4064,0,U,43075,999,44757,.40853E-4,.134E-5,0
IRIDIUM 137,2017-083G,2026-07-11T06:41:27.342816,14.34217695,.0002663,86.3987,312.0899,95.2979,264.8521,0,U,43076,999,44762,.41511E-4,.136E-5,0
IRIDIUM 141,2017-083H,2026-07-11T06:32:19.108896,14.34217349,.0002156,86.3984,311.9220,93.0872,267.0571,0,U,43077,999,44762,.48184E-4,.155E-5,0
IRIDIUM 153,2017-083J,2026-07-11T05:23:27.396096,14.34217650,.0002116,86.3961,280.4217,94.4248,265.7189,0,U,43078,999,44872,.20068E-4,.76E-6,0
IRIDIUM 131,2017-083K,2026-07-11T07:54:31.282272,14.34217425,.0002239,86.3989,312.0854,92.9779,267.1673,0,U,43079,999,44756,.56875E-5,.36E-6,0
IRIDIUM 144,2018-030A,2026-07-10T06:06:03.432096,14.34217693,.00023826,86.3959,280.7559,96.9893,263.1574,0,U,43249,999,43344,-.1470777E-5,.16E-6,0
IRIDIUM 149,2018-030B,2026-07-11T05:41:43.456128,14.34217660,.0002258,86.3959,280.3118,93.7243,266.4211,0,U,43250,999,43360,.41421E-4,.136E-5,0
IRIDIUM 157,2018-030C,2026-07-10T05:02:07.611648,14.34216466,.0002252,86.3961,280.7949,93.9359,266.2095,0,U,43251,999,43343,.10954022E-4,.5E-6,0
IRIDIUM 140,2018-030D,2026-07-11T04:56:03.542784,14.34216486,.0002203,86.3961,280.3912,94.3175,265.8272,0,U,43252,999,43363,.24729E-4,.89E-6,0
IRIDIUM 145,2018-030E,2026-07-11T04:37:47.256384,14.34216569,.0002431,86.3959,280.3682,99.3864,260.7607,0,U,43253,999,43356,.218E-4,.81E-6,0
IRIDIUM 146,2018-030F,2026-07-11T05:50:51.345312,14.34217729,.0002451,86.3959,280.3593,97.7579,262.3896,0,U,43254,999,43358,.52054E-4,.166E-5,0
IRIDIUM 148,2018-030G,2026-07-11T05:05:11.675616,14.34216920,.0002353,86.3960,280.4165,93.1733,266.9732,0,U,43255,999,43361,.24057E-4,.87E-6,0
IRIDIUM 142,2018-030H,2026-07-11T05:59:59.477280,14.34217859,.0002407,86.3957,280.2888,98.3967,261.7501,0,U,43256,999,43358,.47847E-4,.154E-5,0
IRIDIUM 150,2018-030J,2026-07-10T04:07:18.893280,14.34219143,.00022151,86.3963,280.8566,95.9860,264.1588,0,U,43257,999,43345,-.94435944E-4,-.245E-5,0
IRIDIUM 143,2018-030K,2026-07-11T04:46:55.402176,14.34217605,.0002333,86.3964,280.5201,98.2269,261.9192,0,U,43258,999,43353,.43359E-4,.141E-5,0
IRIDIUM 161,2018-047C,2026-07-11T03:46:43.203072,14.43284936,.0002307,86.4467,78.4474,78.8180,281.3280,0,U,43478,999,42859,.45078E-4,.172E-5,0
IRIDIUM 152,2018-047D,2026-07-11T02:27:10.732320,14.34219134,.0002151,86.3941,78.3319,82.6545,277.4895,0,U,43479,999,42591,.42563E-4,.139E-5,0
IRIDIUM 147,2018-047E,2026-07-10T04:50:14.070336,14.34216920,.00022754,86.3943,78.7142,88.4445,271.7011,0,U,43480,999,42578,.70122931E-4,.216E-5,0
IRIDIUM 110,2018-047F,2026-07-11T02:45:26.320608,14.34217525,.0002192,86.3946,78.4248,77.1778,282.9663,0,U,43481,999,42590,.42682E-4,.139E-5,0
IRIDIUM 162,2018-047G,2026-07-10T02:40:06.655296,14.43283456,.00021871,86.4467,78.7759,84.2783,275.8667,0,U,43482,999,42843,.50126108E-4,.189E-5,0
IRIDIUM 160,2018-061A,2026-07-10T00:20:26.459232,14.34217652,.00022527,86.3937,47.2497,86.2180,273.9273,0,U,43569,999,41664,.32630468E-4,.111E-5,0
IRIDIUM 166,2018-061B,2026-07-11T12:06:46.346976,14.34217869,.000226,86.3940,46.5761,89.6407,270.5047,0,U,43570,999,41688,.39317E-5,.31E-6,0
IRIDIUM 158,2018-061C,2026-07-11T13:01:34.446720,14.34217155,.000197,86.3936,46.5699,86.0997,274.0424,0,U,43571,999,41685,.20594E-5,.26E-6,0
IRIDIUM 165,2018-061D,2026-07-11T00:14:22.403328,14.34217063,.0002271,86.3944,46.8399,90.8618,269.2838,0,U,43572,999,41680,.25117E-4,.9E-6,0
IRIDIUM 155,2018-061E,2026-07-11T12:43:18.416064,14.34216704,.0001954,86.3933,46.4897,87.7892,272.3528,0,U,43573,999,41684,-.35473E-5,.1E-6,0
IRIDIUM 154,2018-061F,2026-07-11T12:15:54.393408,14.34217626,.0002315,86.3942,46.6330,89.9028,270.2433,0,U,43574,999,41689,.56795E-4,.179E-5,0
IRIDIUM 163,2018-061G,2026-07-11T01:45:42.388992,14.34217510,.000216,86.3938,46.7306,84.9908,275.1535,0,U,43575,999,41680,.45262E-4,.147E-5,0
